start=new Date('2021-09-26T00:00:00.000Z').valueOf();
sats=[{"APOAPSIS":"547.728","FILE":"3128274","EPOCH":"2021-09-25T07:52:20.107200","CLASSIFICATION_TYPE":"U","REV_AT_EPOCH":"2727","INCLINATION":"53.0570","SITE":"AFETR","LAUNCH_DATE":"2021-04-07","TIME_SYSTEM":"UTC","MEAN_MOTION_DOT":"-0.00000213","CENTER_NAME":"EARTH","ELEMENT_SET_NO":"999","GP_ID":"185507510","MEAN_MOTION_DDOT":"0.0000000000000","ARG_OF_PERICENTER":"65.3099","MEAN_MOTION":"15.06394415","SEMIMAJOR_AXIS":"6925.366","BSTAR":"0.00000460550000","NORAD_CAT_ID":"48113","MEAN_ELEMENT_THEORY":"SGP4","REF_FRAME":"TEME","TLE_LINE2":"2 48113  53.0570 272.6351 0000718  65.3099 294.7965 15.06394415 27271","DECAY_DATE":null,"RCS_SIZE":"LARGE","OBJECT_TYPE":"PAYLOAD","OBJECT_ID":"2021-027X","PERIAPSIS":"546.733","TLE_LINE1":"1 48113U 21027X   21268.32801050 -.00000213  00000-0  46055-5 0  9999","OBJECT_NAME":"STARLINK-2450","ECCENTRICITY":"0.00007180","EPHEMERIS_TYPE":"0","COUNTRY_CODE":"US","PERIOD":"95.592","MEAN_ANOMALY":"294.7965","RA_OF_ASC_NODE":"272.6351"},{"ARG_OF_PERICENTER":"47.6389","MEAN_MOTION":"15.06381417","NORAD_CAT_ID":"48114","SEMIMAJOR_AXIS":"6925.406","BSTAR":"0.00008713100000","MEAN_ELEMENT_THEORY":"SGP4","REF_FRAME":"TEME","TLE_LINE2":"2 48114  53.0557 266.0235 0000737  47.6389 312.4662 15.06381417 27417","RCS_SIZE":"LARGE","DECAY_DATE":null,"OBJECT_TYPE":"PAYLOAD","OBJECT_ID":"2021-027Y","TLE_LINE1":"1 48114U 21027Y   21268.68692081  .00001016  00000-0  87131-4 0  9991","ECCENTRICITY":"0.00007370","PERIAPSIS":"546.760","OBJECT_NAME":"STARLINK-2451","EPHEMERIS_TYPE":"0","COUNTRY_CODE":"US","PERIOD":"95.593","MEAN_ANOMALY":"312.4662","RA_OF_ASC_NODE":"266.0235","APOAPSIS":"547.781","FILE":"3128274","EPOCH":"2021-09-25T16:29:09.957984","CLASSIFICATION_TYPE":"U","REV_AT_EPOCH":"2741","INCLINATION":"53.0557","SITE":"AFETR","TIME_SYSTEM":"UTC","LAUNCH_DATE":"2021-04-07","MEAN_MOTION_DOT":"0.00001016","CENTER_NAME":"EARTH","ELEMENT_SET_NO":"999","GP_ID":"185507760","MEAN_MOTION_DDOT":"0.0000000000000"},{"LAUNCH_DATE":"2021-04-07","TIME_SYSTEM":"UTC","SITE":"AFETR","INCLINATION":"53.0528","REV_AT_EPOCH":"2748","CLASSIFICATION_TYPE":"U","EPOCH":"2021-09-25T17:09:35.504928","FILE":"3128274","APOAPSIS":"547.741","MEAN_MOTION_DDOT":"0.0000000000000","GP_ID":"185506008","ELEMENT_SET_NO":"999","CENTER_NAME":"EARTH","MEAN_MOTION_DOT":"0.00000982","RCS_SIZE":"LARGE","DECAY_DATE":null,"TLE_LINE2":"2 48115  53.0528 260.8967 0000768  51.6748 308.4310 15.06401292 27484","MEAN_ELEMENT_THEORY":"SGP4","REF_FRAME":"TEME","BSTAR":"0.00008477600000","SEMIMAJOR_AXIS":"6925.345","NORAD_CAT_ID":"48115","MEAN_MOTION":"15.06401292","ARG_OF_PERICENTER":"51.6748","RA_OF_ASC_NODE":"260.8967","MEAN_ANOMALY":"308.4310","PERIOD":"95.592","COUNTRY_CODE":"US","EPHEMERIS_TYPE":"0","PERIAPSIS":"546.678","TLE_LINE1":"1 48115U 21027Z   21268.71499427  .00000982  00000-0  84776-4 0  9998","OBJECT_NAME":"STARLINK-2452","ECCENTRICITY":"0.00007680","OBJECT_ID":"2021-027Z","OBJECT_TYPE":"PAYLOAD"},{"REV_AT_EPOCH":"2734","EPOCH":"2021-09-25T17:20:15.314208","FILE":"3128274","APOAPSIS":"547.711","CLASSIFICATION_TYPE":"U","LAUNCH_DATE":"2021-04-07","TIME_SYSTEM":"UTC","SITE":"AFETR","INCLINATION":"53.0566","ELEMENT_SET_NO":"999","CENTER_NAME":"EARTH","MEAN_MOTION_DOT":"-0.00000282","GP_ID":"185506258","MEAN_MOTION_DDOT":"0.0000000000000","MEAN_ELEMENT_THEORY":"SGP4","REF_FRAME":"TEME","BSTAR":"-0.00000008818000","SEMIMAJOR_AXIS":"6925.346","NORAD_CAT_ID":"48116","ARG_OF_PERICENTER":"70.9645","MEAN_MOTION":"15.06400672","RCS_SIZE":"LARGE","DECAY_DATE":null,"TLE_LINE2":"2 48116  53.0566 270.8697 0000721  70.9645 289.1422 15.06400672 27342","ECCENTRICITY":"0.00007210","TLE_LINE1":"1 48116U 21027AA  21268.72239947 -.00000282  00000-0 -88180-7 0  9990","PERIAPSIS":"546.712","OBJECT_NAME":"STARLINK-2454","COUNTRY_CODE":"US","EPHEMERIS_TYPE":"0","OBJECT_ID":"2021-027AA","OBJECT_TYPE":"PAYLOAD","MEAN_ANOMALY":"289.1422","RA_OF_ASC_NODE":"270.8697","PERIOD":"95.592"},{"CLASSIFICATION_TYPE":"U","APOAPSIS":"547.680","EPOCH":"2021-09-25T16:40:27.169824","FILE":"3128274","REV_AT_EPOCH":"2762","INCLINATION":"53.0546","SITE":"AFETR","TIME_SYSTEM":"UTC","LAUNCH_DATE":"2021-04-07","MEAN_MOTION_DOT":"-0.00000376","CENTER_NAME":"EARTH","ELEMENT_SET_NO":"999","MEAN_MOTION_DDOT":"0.0000000000000","GP_ID":"185507010","MEAN_MOTION":"15.06397661","ARG_OF_PERICENTER":"49.2455","BSTAR":"-0.00000636050000","SEMIMAJOR_AXIS":"6925.356","NORAD_CAT_ID":"48117","MEAN_ELEMENT_THEORY":"SGP4","REF_FRAME":"TEME","TLE_LINE2":"2 48117  53.0546 250.9816 0000663  49.2455 310.8592 15.06397661 27620","RCS_SIZE":"LARGE","DECAY_DATE":null,"OBJECT_ID":"2021-027AB","OBJECT_TYPE":"PAYLOAD","EPHEMERIS_TYPE":"0","COUNTRY_CODE":"US","PERIAPSIS":"546.762","TLE_LINE1":"1 48117U 21027AB  21268.69475891 -.00000376  00000-0 -63605-5 0  9994","OBJECT_NAME":"STARLINK-2455","ECCENTRICITY":"0.00006630","PERIOD":"95.592","RA_OF_ASC_NODE":"250.9816","MEAN_ANOMALY":"310.8592"},{"TLE_LINE1":"1 48118U 21027AC  21268.24138603  .00001427  00000-0  11465-3 0  9994","ECCENTRICITY":"0.00009220","PERIAPSIS":"546.560","OBJECT_NAME":"STARLINK-2458","EPHEMERIS_TYPE":"0","COUNTRY_CODE":"US","OBJECT_TYPE":"PAYLOAD","OBJECT_ID":"2021-027AC","MEAN_ANOMALY":"300.1914","RA_OF_ASC_NODE":"253.0163","PERIOD":"95.592","BSTAR":"0.00011465000000","SEMIMAJOR_AXIS":"6925.334","NORAD_CAT_ID":"48118","MEAN_ELEMENT_THEORY":"SGP4","REF_FRAME":"TEME","ARG_OF_PERICENTER":"59.9166","MEAN_MOTION":"15.06404880","DECAY_DATE":null,"RCS_SIZE":"LARGE","TLE_LINE2":"2 48118  53.0541 253.0163 0000922  59.9166 300.1914 15.06404880 27554","CENTER_NAME":"EARTH","ELEMENT_SET_NO":"999","MEAN_MOTION_DOT":"0.00001427","GP_ID":"185469553","MEAN_MOTION_DDOT":"0.0000000000000","REV_AT_EPOCH":"2755","APOAPSIS":"547.837","FILE":"3127665","EPOCH":"2021-09-25T05:47:35.752992","CLASSIFICATION_TYPE":"U","LAUNCH_DATE":"2021-04-07","TIME_SYSTEM":"UTC","INCLINATION":"53.0541","SITE":"AFETR"},{"MEAN_MOTION":"15.06407957","ARG_OF_PERICENTER":"37.5481","MEAN_ELEMENT_THEORY":"SGP4","REF_FRAME":"TEME","SEMIMAJOR_AXIS":"6925.324","NORAD_CAT_ID":"48119","BSTAR":"0.00013285000000","TLE_LINE2":"2 48119  53.0541 253.0316 0001022  37.5481 322.5579 15.06407957 27541","RCS_SIZE":"LARGE","DECAY_DATE":null,"OBJECT_ID":"2021-027AD","OBJECT_TYPE":"PAYLOAD","COUNTRY_CODE":"US","EPHEMERIS_TYPE":"0","PERIAPSIS":"546.481","TLE_LINE1":"1 48119U 21027AD  21268.23769324  .00001698  00000-0  13285-3 0  9996","OBJECT_NAME":"STARLINK-2459","ECCENTRICITY":"0.00010220","PERIOD":"95.592","RA_OF_ASC_NODE":"253.0316","MEAN_ANOMALY":"322.5579","CLASSIFICATION_TYPE":"U","FILE":"3127665","EPOCH":"2021-09-25T05:42:16.695936","APOAPSIS":"547.897","REV_AT_EPOCH":"2754","SITE":"AFETR","INCLINATION":"53.0541","LAUNCH_DATE":"2021-04-07","TIME_SYSTEM":"UTC","MEAN_MOTION_DOT":"0.00001698","ELEMENT_SET_NO":"999","CENTER_NAME":"EARTH","MEAN_MOTION_DDOT":"0.0000000000000","GP_ID":"185470304"},{"OBJECT_ID":"2021-027AE","OBJECT_TYPE":"PAYLOAD","ECCENTRICITY":"0.00009640","TLE_LINE1":"1 48120U 21027AE  21268.70765264  .00002492  00000-0  18603-3 0  9991","PERIAPSIS":"546.510","OBJECT_NAME":"STARLINK-2460","COUNTRY_CODE":"US","EPHEMERIS_TYPE":"0","PERIOD":"95.591","MEAN_ANOMALY":"300.0319","RA_OF_ASC_NODE":"270.9262","ARG_OF_PERICENTER":"60.0766","MEAN_MOTION":"15.06411577","MEAN_ELEMENT_THEORY":"SGP4","REF_FRAME":"TEME","SEMIMAJOR_AXIS":"6925.313","NORAD_CAT_ID":"48120","BSTAR":"0.00018603000000","TLE_LINE2":"2 48120  53.0555 270.9262 0000964  60.0766 300.0319 15.06411577 27352","DECAY_DATE":null,"RCS_SIZE":"LARGE","MEAN_MOTION_DOT":"0.00002492","ELEMENT_SET_NO":"999","CENTER_NAME":"EARTH","GP_ID":"185506759","MEAN_MOTION_DDOT":"0.0000000000000","FILE":"3128274","EPOCH":"2021-09-25T16:59:01.188096","APOAPSIS":"547.846","CLASSIFICATION_TYPE":"U","REV_AT_EPOCH":"2735","SITE":"AFETR","INCLINATION":"53.0555","LAUNCH_DATE":"2021-04-07","TIME_SYSTEM":"UTC"},{"TLE_LINE2":"2 48121  53.0552 261.0551 0000554  28.7000 331.4020 15.06406439 27470","RCS_SIZE":"LARGE","DECAY_DATE":null,"ARG_OF_PERICENTER":"28.7000","MEAN_MOTION":"15.06406439","REF_FRAME":"TEME","MEAN_ELEMENT_THEORY":"SGP4","NORAD_CAT_ID":"48121","SEMIMAJOR_AXIS":"6925.329","BSTAR":"0.00010400000000","PERIOD":"95.592","MEAN_ANOMALY":"331.4020","RA_OF_ASC_NODE":"261.0551","OBJECT_TYPE":"PAYLOAD","OBJECT_ID":"2021-027AF","TLE_LINE1":"1 48121U 21027AF  21268.67908819  .00001269  00000-0  10400-3 0  9991","ECCENTRICITY":"0.00005540","PERIAPSIS":"546.810","OBJECT_NAME":"STARLINK-2462","COUNTRY_CODE":"US","EPHEMERIS_TYPE":"0","INCLINATION":"53.0552","SITE":"AFETR","LAUNCH_DATE":"2021-04-07","TIME_SYSTEM":"UTC","EPOCH":"2021-09-25T16:17:53.219616","FILE":"3128274","APOAPSIS":"547.577","CLASSIFICATION_TYPE":"U","REV_AT_EPOCH":"2747","GP_ID":"185507511","MEAN_MOTION_DDOT":"0.0000000000000","MEAN_MOTION_DOT":"0.00001269","ELEMENT_SET_NO":"999","CENTER_NAME":"EARTH"},{"GP_ID":"185507761","MEAN_MOTION_DDOT":"0.0000000000000","MEAN_MOTION_DOT":"0.00002123","ELEMENT_SET_NO":"999","CENTER_NAME":"EARTH","INCLINATION":"53.0548","SITE":"AFETR","TIME_SYSTEM":"UTC","LAUNCH_DATE":"2021-04-07","FILE":"3128274","EPOCH":"2021-09-25T16:19:49.865664","APOAPSIS":"547.648","CLASSIFICATION_TYPE":"U","REV_AT_EPOCH":"2755","PERIOD":"95.591","MEAN_ANOMALY":"299.9248","RA_OF_ASC_NODE":"256.0475","OBJECT_ID":"2021-027AG","OBJECT_TYPE":"PAYLOAD","OBJECT_NAME":"STARLINK-2463","TLE_LINE1":"1 48122U 21027AG  21268.68043826  .00002123  00000-0  16127-3 0  9993","PERIAPSIS":"546.692","ECCENTRICITY":"0.00006900","COUNTRY_CODE":"US","EPHEMERIS_TYPE":"0","TLE_LINE2":"2 48122  53.0548 256.0475 0000690  60.1810 299.9248 15.06414131 27552","RCS_SIZE":"LARGE","DECAY_DATE":null,"ARG_OF_PERICENTER":"60.1810","MEAN_MOTION":"15.06414131","MEAN_ELEMENT_THEORY":"SGP4","REF_FRAME":"TEME","BSTAR":"0.00016127000000","SEMIMAJOR_AXIS":"6925.305","NORAD_CAT_ID":"48122"}];
